H1 CPF  1  DGF 2022 10 31 16  8041 larets     NONE      
H2   304206 5557    27944 2022 09 30 00 00 00 2022 10 07 00 00 00    30 1 1  0 0 0
H5  0.0650
H9
10 0 59857  32400.000000  0       1578111.276       3132913.644      -6131677.296
10 0 59857  32430.000000  0       1557454.009       2931533.339      -6235449.144
10 0 59857  32460.000000  0       1534338.025       2727290.990      -6332883.050
10 0 59857  32490.000000  0       1508774.727       2520403.633      -6423880.510
10 0 59857  32520.000000  0       1480778.927       2311090.861      -6508349.524
10 0 59857  32550.000000  0       1450368.843       2099574.594      -6586204.683
10 0 59857  32580.000000  0       1417566.086       1886078.844      -6657367.254
10 0 59857  32610.000000  0       1382395.651       1670829.478      -6721765.257
10 0 59857  32640.000000  0       1344885.897       1454053.974      -6779333.532
10 0 59857  32670.000000  0       1305068.525       1235981.185      -6830013.796
10 0 59857  32700.000000  0       1262978.552       1016841.102      -6873754.699
10 0 59857  32730.000000  0       1218654.280        796864.611      -6910511.875
10 0 59857  32760.000000  0       1172137.265        576283.254      -6940247.983
10 0 59857  32790.000000  0       1123472.274        355328.986      -6962932.742
10 0 59857  32820.000000  0       1072707.246        134233.933      -6978542.963
10 0 59857  32850.000000  0       1019893.242        -86769.851      -6987062.565
10 0 59857  32880.000000  0        965084.393       -307450.624      -6988482.594
10 0 59857  32910.000000  0        908337.848       -527577.190      -6982801.226
10 0 59857  32940.000000  0        849713.715       -746919.145      -6970023.774
10 0 59857  32970.000000  0        789274.999       -965247.105      -6950162.685
10 0 59857  33000.000000  0        727087.537      -1182332.950      -6923237.523
10 0 59857  33030.000000  0        663219.926      -1397950.055      -6889274.958
10 0 59857  33060.000000  0        597743.455      -1611873.517      -6848308.744
10 0 59857  33090.000000  0        530732.024      -1823880.393      -6800379.688
10 0 59857  33120.000000  0        462262.065      -2033749.926      -6745535.627
10 0 59857  33150.000000  0        392412.460      -2241263.779      -6683831.383
10 0 59857  33180.000000  0        321264.444      -2446206.267      -6615328.716
10 0 59857  33210.000000  0        248901.519      -2648364.582      -6540096.267
10 0 59857  33240.000000  0        175409.356      -2847529.013      -6458209.493
10 0 59857  33270.000000  0        100875.695      -3043493.170      -6369750.594
10 0 59857  33300.000000  0         25390.248      -3236054.190      -6274808.438
10 0 59857  33330.000000  0        -50955.406      -3425012.955      -6173478.484
10 0 59857  33360.000000  0       -128067.927      -3610174.298      -6065862.689
10 0 59857  33390.000000  0       -205852.324      -3791347.207      -5952069.415
10 0 59857  33420.000000  0       -284212.070      -3968345.030      -5832213.332
10 0 59857  33450.000000  0       -363049.214      -4140985.669      -5706415.311
10 0 59857  33480.000000  0       -442264.501      -4309091.778      -5574802.304
10 0 59857  33510.000000  0       -521757.492      -4472490.950      -5437507.230
10 0 59857  33540.000000  0       -601426.691      -4631015.901      -5294668.848
10 0 59857  33570.000000  0       -681169.664      -4784504.649      -5146431.618
10 0 59857  33600.000000  0       -760883.172      -4932800.690      -4992945.567
10 0 59857  33630.000000  0       -840463.297      -5075753.164      -4834366.144
10 0 59857  33660.000000  0       -919805.576      -5213217.020      -4670854.065
10 0 59857  33690.000000  0       -998805.133      -5345053.172      -4502575.154
10 0 59857  33720.000000  0      -1077356.808      -5471128.649      -4329700.183
10 0 59857  33750.000000  0      -1155355.303      -5591316.738      -4152404.699
10 0 59857  33780.000000  0      -1232695.305      -5705497.122      -3970868.852
10 0 59857  33810.000000  0      -1309271.634      -5813556.010      -3785277.212
10 0 59857  33840.000000  0      -1384979.374      -5915386.262      -3595818.586
10 0 59857  33870.000000  0      -1459714.014      -6010887.503      -3402685.826
10 0 59857  33900.000000  0      -1533371.586      -6099966.232      -3206075.636
10 0 59857  33930.000000  0      -1605848.803      -6182535.925      -3006188.369
10 0 59857  33960.000000  0      -1677043.202      -6258517.129      -2803227.825
10 0 59857  33990.000000  0      -1746853.277      -6327837.551      -2597401.039
10 0 59857  34020.000000  0      -1815178.620      -6390432.131      -2388918.069
10 0 59857  34050.000000  0      -1881920.058      -6446243.115      -2177991.775
10 0 59857  34080.000000  0      -1946979.788      -6495220.116      -1964837.599
10 0 59857  34110.000000  0      -2010261.513      -6537320.165      -1749673.343
10 0 59857  34140.000000  0      -2071670.575      -6572507.757      -1532718.934
10 0 59857  34170.000000  0      -2131114.088      -6600754.884      -1314196.199
10 0 59857  34200.000000  0      -2188501.068      -6622041.064      -1094328.630
10 0 59857  34230.000000  0      -2243742.562      -6636353.353       -873341.144
10 0 59857  34260.000000  0      -2296751.777      -6643686.359       -651459.850
10 0 59857  34290.000000  0      -2347444.199      -6644042.234       -428911.806
10 0 59857  34320.000000  0      -2395737.721      -6637430.671       -205924.784
10 0 59857  34350.000000  0      -2441552.756      -6623868.875         17272.978
10 0 59857  34380.000000  0      -2484812.357      -6603381.547        240453.013
10 0 59857  34410.000000  0      -2525442.327      -6576000.834        463386.869
10 0 59857  34440.000000  0      -2563371.332      -6541766.296        685846.351
10 0 59857  34470.000000  0      -2598531.003      -6500724.842        907603.766
10 0 59857  34500.000000  0      -2630856.043      -6452930.671       1128432.158
10 0 59857  34530.000000  0      -2660284.322      -6398445.199       1348105.556
10 0 59857  34560.000000  0      -2686756.973      -6337336.976       1566399.209
10 0 59857  34590.000000  0      -2710218.484      -6269681.601       1783089.824
10 0 59857  34620.000000  0      -2730616.785      -6195561.619       1997955.803
10 0 59857  34650.000000  0      -2747903.327      -6115066.420       2210777.474
10 0 59857  34680.000000  0      -2762033.160      -6028292.124       2421337.322
10 0 59857  34710.000000  0      -2772965.012      -5935341.462       2629420.217
10 0 59857  34740.000000  0      -2780661.347      -5836323.644       2834813.639
10 0 59857  34770.000000  0      -2785088.439      -5731354.228       3037307.900
10 0 59857  34800.000000  0      -2786216.422      -5620554.973       3236696.356
10 0 59857  34830.000000  0      -2784019.352      -5504053.694       3432775.626
10 0 59857  34860.000000  0      -2778475.250      -5381984.106       3625345.798
10 0 59857  34890.000000  0      -2769566.149      -5254485.661       3814210.636
10 0 59857  34920.000000  0      -2757278.135      -5121703.380       3999177.778
10 0 59857  34950.000000  0      -2741601.377      -4983787.683       4180058.934
10 0 59857  34980.000000  0      -2722530.163      -4840894.210       4356670.072
10 0 59857  35010.000000  0      -2700062.922      -4693183.633       4528831.612
10 0 59857  35040.000000  0      -2674202.242      -4540821.475       4696368.597
10 0 59857  35070.000000  0      -2644954.892      -4383977.910       4859110.879
10 0 59857  35100.000000  0      -2612331.823      -4222827.566       5016893.283
10 0 59857  35130.000000  0      -2576348.176      -4057549.321       5169555.774
10 0 59857  35160.000000  0      -2537023.276      -3888326.095       5316943.612
10 0 59857  35190.000000  0      -2494380.630      -3715344.640       5458907.502
10 0 59857  35220.000000  0      -2448447.908      -3538795.328       5595303.736
10 0 59857  35250.000000  0      -2399256.937      -3358871.941       5725994.334
10 0 59857  35280.000000  0      -2346843.668      -3175771.446       5850847.179
10 0 59857  35310.000000  0      -2291248.159      -2989693.783       5969736.140
10 0 59857  35340.000000  0      -2232514.537      -2800841.636       6082541.194
10 0 59857  35370.000000  0      -2170690.964      -2609420.218       6189148.541
10 0 59857  35400.000000  0      -2105829.598      -2415637.036       6289450.710
10 0 59857  35430.000000  0      -2037986.544      -2219701.674       6383346.665
10 0 59857  35460.000000  0      -1967221.808      -2021825.556       6470741.899
10 0 59857  35490.000000  0      -1893599.237      -1822221.716       6551548.522
10 0 59857  35520.000000  0      -1817186.464      -1621104.568       6625685.346
10 0 59857  35550.000000  0      -1738054.840      -1418689.670       6693077.949
10 0 59857  35580.000000  0      -1656279.367      -1215193.492       6753658.751
10 0 59857  35610.000000  0      -1571938.626      -1010833.189       6807367.063
10 0 59857  35640.000000  0      -1485114.704       -805826.364       6854149.141
10 0 59857  35670.000000  0      -1395893.112       -600390.851       6893958.238
10 0 59857  35700.000000  0      -1304362.701       -394744.479       6926754.640
10 0 59857  35730.000000  0      -1210615.579       -189104.849       6952505.713
10 0 59857  35760.000000  0      -1114747.011         16310.899       6971185.925
10 0 59857  35790.000000  0      -1016855.325        221286.310       6982776.872
10 0 59857  35820.000000  0       -917041.815        425605.844       6987267.295
10 0 59857  35850.000000  0       -815410.629        629055.097       6984653.085
10 0 59857  35880.000000  0       -712068.667        831421.028       6974937.288
10 0 59857  35910.000000  0       -607125.463       1032492.175       6958130.097
10 0 59857  35940.000000  0       -500693.079       1232058.877       6934248.845
10 0 59857  35970.000000  0       -392885.975       1429913.487       6903317.988
99
